[{"OBJECT_NAME":"STARLINK-36620","OBJECT_ID":"2026-022G","EPOCH":"2026-03-09T22:00:01.999584","MEAN_MOTION":15.69211833,"ECCENTRICITY":0.00014478,"INCLINATION":97.2845,"RA_OF_ASC_NODE":102.899,"ARG_OF_PERICENTER":67.0153,"MEAN_ANOMALY":315.383,"EPHEMERIS_TYPE":0,"CLASSIFICATION_TYPE":"U","NORAD_CAT_ID":67654,"ELEMENT_SET_NO":999,"REV_AT_EPOCH":607,"BSTAR":-0.018655391,"MEAN_MOTION_DOT":-0.01919279,"MEAN_MOTION_DDOT":0},{"OBJECT_NAME":"CZ-11 DEB","OBJECT_ID":"2025-255B","EPOCH":"2026-03-09T22:54:27.037440","MEAN_MOTION":15.52392921,"ECCENTRICITY":0.00133106,"INCLINATION":52.9927,"RA_OF_ASC_NODE":120.0728,"ARG_OF_PERICENTER":327.0296,"MEAN_ANOMALY":32.9881,"EPHEMERIS_TYPE":0,"CLASSIFICATION_TYPE":"U","NORAD_CAT_ID":66377,"ELEMENT_SET_NO":999,"REV_AT_EPOCH":1872,"BSTAR":0.00089565046,"MEAN_MOTION_DOT":0.00055721,"MEAN_MOTION_DDOT":0}]
